{
  "features": [
    {
      "geometry": {
        "coordinates": [
          [12.349929109759415, 45.43442728103736],
          [12.349810982360594, 45.43448571374947],
          [12.349859395228748, 45.434735750716754],
          [12.349761309780547, 45.43476204556001],
          [12.349723436730415, 45.434797600345064],
          [12.34953970125477, 45.4348076562398],
          [12.34889432194629, 45.43482345897448],
          [12.348882038794557, 45.43490534259908],
          [12.348819089294835, 45.43511543859702],
          [12.348840172752318, 45.43513835841941],
          [12.349055359314377, 45.43528603539701],
          [12.349077456711598, 45.435306340951655],
          [12.349121464764721, 45.43540082120185],
          [12.349120938635792, 45.435421126714544],
          [12.349056224829127, 45.43546875234358],
          [12.348782745075482, 45.43568167524751],
          [12.34873090636711, 45.435735399352865],
          [12.348484473124813, 45.436016330818944],
          [12.348420674575607, 45.43609971455234],
          [12.348689754574849, 45.43626661186369],
          [12.348942331599403, 45.43644217179835],
          [12.34921820029217, 45.43664496646184],
          [12.349269552473316, 45.43661228472615],
          [12.349427190363599, 45.43674091651593],
          [12.349098179168237, 45.43694245438641],
          [12.349065934775325, 45.43700949343068],
          [12.349021150896533, 45.437032119090304],
          [12.348744149034104, 45.43717836847378],
          [12.348890016786584, 45.43732492070498],
          [12.349011352236005, 45.43741936527431],
          [12.349291153107231, 45.43730072798169],
          [12.349463885546669, 45.437554983422245],
          [12.3496429050615, 45.43786018179338],
          [12.349751642565991, 45.437864368974175],
          [12.349791424680404, 45.43787646521585],
          [12.349870988909203, 45.43799184462475],
          [12.34992933600924, 45.438023015634],
          [12.350330472329915, 45.43788670049577],
          [12.35037224355051, 45.43786204277325],
          [12.35061624055669, 45.43776992519568],
          [12.350596349499483, 45.43774014977001],
          [12.350663979093554, 45.43771595722475],
          [12.350757206667737, 45.43705665519178],
          [12.350642257536805, 45.436812582832744]
        ],
        "type": "LineString"
      },
      "type": "Feature",
      "properties": {}
    },
    {
      "type": "Feature",
      "properties": {},
      "geometry": {
        "coordinates": [
          [
            [12.350273, 45.437002],
            [12.350703, 45.436887],
            [12.350628, 45.436737],
            [12.350189, 45.436848],
            [12.350273, 45.437002]
          ]
        ],
        "type": "Polygon"
      },
      "id": "139b1588c64962c65fbfe1dacd9dc343"
    },

    {
      "type": "Feature",
      "properties": {
        "label": "Armenia Pavilion"
      },
      "geometry": {
        "coordinates": [12.350369, 45.436882],
        "type": "Point"
      },
      "id": "f7a6bc0ab5d0d8c85855fa33c2f561de"
    },

    {
      "type": "Feature",
      "properties": {
        "marker": "start",
        "label": "Start"
      },
      "geometry": {
        "coordinates": [12.349929109759415, 45.43442728103736],
        "type": "Point"
      },
      "id": "directions-start"
    },
    {
      "type": "Feature",
      "properties": {
        "marker": "end",
        "label": "End"
      },
      "geometry": {
        "coordinates": [12.350642257536805, 45.436812582832744],
        "type": "Point"
      },
      "id": "directions-end"
    }
  ],
  "type": "FeatureCollection"
}
